{"type": "FeatureCollection", "features": [ {"type": "Feature", "properties": {"norad_id": 43622, "name": "BEIDOU-3 M13 (C32)", "group": "beidou", "lat": -32.68794115565714, "lon": 43.513465873583144, "alt_km": 21516.484689103258, "timestamp": "2025-12-17T23:38:07.119311+00:00", "meta": {"OBJECT_NAME": "BEIDOU-3 M13 (C32)", "OBJECT_ID": "2018-072A", "EPOCH": "2025-12-15T21:31:53.202720", "MEAN_MOTION": 1.86231028, "ECCENTRICITY": 0.00060178, "INCLINATION": 56.4622, "RA_OF_ASC_NODE": 68.7153, "ARG_OF_PERICENTER": 299.0223, "MEAN_ANOMALY": 60.938, "EPHEMERIS_TYPE": 0, "CLASSIFICATION_TYPE": "U", "NORAD_CAT_ID": 43622, "ELEMENT_SET_NO": 999, "REV_AT_EPOCH": 4924, "BSTAR": 0, "MEAN_MOTION_DOT": -8.2e-07, "MEAN_MOTION_DDOT": 0}, "tle": {"line1": "1 43622U 18072A   25349.89714355 -.00000082  00000+0  00000+0 0  9999", "line2": "2 43622  56.4622  68.7153 0006017 299.0223  60.9380  1.86231028 49241"}}, "geometry": {"type": "Point", "coordinates": [43.513465873583144, -32.68794115565714]}}, {"type": "Feature", "properties": {"norad_id": 43623, "name": "BEIDOU-3 M14 (C33)", "group": "beidou", "lat": 39.61623476680683, "lon": 101.88885816280587, "alt_km": 21521.1843250157, "timestamp": "2025-12-17T23:38:07.119322+00:00", "meta": {"OBJECT_NAME": "BEIDOU-3 M14 (C33)", "OBJECT_ID": "2018-072B", "EPOCH": "2025-12-17T08:57:48.957984", "MEAN_MOTION": 1.86231002, "ECCENTRICITY": 0.00033285, "INCLINATION": 56.4654, "RA_OF_ASC_NODE": 68.6605, "ARG_OF_PERICENTER": 332.8139, "MEAN_ANOMALY": 27.1942, "EPHEMERIS_TYPE": 0, "CLASSIFICATION_TYPE": "U", "NORAD_CAT_ID": 43623, "ELEMENT_SET_NO": 999, "REV_AT_EPOCH": 4926, "BSTAR": 0, "MEAN_MOTION_DOT": -7.3e-07, "MEAN_MOTION_DDOT": 0}, "tle": {"line1": "1 43623U 18072B   25351.37348331 -.00000073  00000+0  00000+0 0  9993", "line2": "2 43623  56.4654  68.6605 0003328 332.8139  27.1942  1.86231002 49265"}}, "geometry": {"type": "Point", "coordinates": [101.88885816280587, 39.61623476680683]}}, {"type": "Feature", "properties": {"norad_id": 43647, "name": "BEIDOU-3 M16 (C35)", "group": "beidou", "lat": -42.26075190542467, "lon": -94.51854758392943, "alt_km": 21527.75278264712, "timestamp": "2025-12-17T23:38:07.119333+00:00", "meta": {"OBJECT_NAME": "BEIDOU-3 M16 (C35)", "OBJECT_ID": "2018-078A", "EPOCH": "2025-12-16T10:58:34.332384", "MEAN_MOTION": 1.86232417, "ECCENTRICITY": 0.00072794, "INCLINATION": 54.2586, "RA_OF_ASC_NODE": 306.3912, "ARG_OF_PERICENTER": 19.6101, "MEAN_ANOMALY": 340.4043, "EPHEMERIS_TYPE": 0, "CLASSIFICATION_TYPE": "U", "NORAD_CAT_ID": 43647, "ELEMENT_SET_NO": 999, "REV_AT_EPOCH": 4875, "BSTAR": 0, "MEAN_MOTION_DOT": -9.5e-07, "MEAN_MOTION_DDOT": 0}, "tle": {"line1": "1 43647U 18078A   25350.45734181 -.00000095  00000+0  00000+0 0  9999", "line2": "2 43647  54.2586 306.3912 0007279  19.6101 340.4043  1.86232417 48759"}}, "geometry": {"type": "Point", "coordinates": [-94.51854758392943, -42.26075190542467]}}, {"type": "Feature", "properties": {"norad_id": 43648, "name": "BEIDOU-3 M15 (C34)", "group": "beidou", "lat": -29.611158492477973, "lon": 150.45714101213534, "alt_km": 21541.88996715614, "timestamp": "2025-12-17T23:38:07.119344+00:00", "meta": {"OBJECT_NAME": "BEIDOU-3 M15 (C34)", "OBJECT_ID": "2018-078B", "EPOCH": "2025-12-17T02:57:51.837696", "MEAN_MOTION": 1.86232126, "ECCENTRICITY": 0.00038449, "INCLINATION": 54.2536, "RA_OF_ASC_NODE": 306.3681, "ARG_OF_PERICENTER": 19.6728, "MEAN_ANOMALY": 340.3287, "EPHEMERIS_TYPE": 0, "CLASSIFICATION_TYPE": "U", "NORAD_CAT_ID": 43648, "ELEMENT_SET_NO": 999, "REV_AT_EPOCH": 4878, "BSTAR": 0, "MEAN_MOTION_DOT": -9.2e-07, "MEAN_MOTION_DDOT": 0}, "tle": {"line1": "1 43648U 18078B   25351.12351664 -.00000092  00000+0  00000+0 0  9993", "line2": "2 43648  54.2536 306.3681 0003844  19.6728 340.3287  1.86232126 48786"}}, "geometry": {"type": "Point", "coordinates": [150.45714101213534, -29.611158492477973]}}, {"type": "Feature", "properties": {"norad_id": 43683, "name": "BEIDOU-3 G1 (C59)", "group": "beidou", "lat": 2.2782070880766225, "lon": -138.5372862247687, "alt_km": 35784.061559552065, "timestamp": "2025-12-17T23:38:07.119356+00:00", "meta": {"OBJECT_NAME": "BEIDOU-3 G1 (C59)", "OBJECT_ID": "2018-085A", "EPOCH": "2025-12-17T15:42:16.379136", "MEAN_MOTION": 1.00269508, "ECCENTRICITY": 0.00016389, "INCLINATION": 2.6197, "RA_OF_ASC_NODE": 102.8231, "ARG_OF_PERICENTER": 49.2154, "MEAN_ANOMALY": 310.1037, "EPHEMERIS_TYPE": 0, "CLASSIFICATION_TYPE": "U", "NORAD_CAT_ID": 43683, "ELEMENT_SET_NO": 999, "REV_AT_EPOCH": 2624, "BSTAR": 0, "MEAN_MOTION_DOT": -2.54e-06, "MEAN_MOTION_DDOT": 0}, "tle": {"line1": "1 43683U 18085A   25351.65435624 -.00000254  00000+0  00000+0 0  9997", "line2": "2 43683   2.6197 102.8231 0001638  49.2154 310.1037  1.00269508 26241"}}, "geometry": {"type": "Point", "coordinates": [-138.5372862247687, 2.2782070880766225]}}, {"type": "Feature", "properties": {"norad_id": 43706, "name": "BEIDOU-3 M17 (C36)", "group": "beidou", "lat": 49.126278128966526, "lon": -48.18057240884397, "alt_km": 21538.838181273666, "timestamp": "2025-12-17T23:38:07.119368+00:00", "meta": {"OBJECT_NAME": "BEIDOU-3 M17 (C36)", "OBJECT_ID": "2018-093A", "EPOCH": "2025-12-15T07:56:44.520576", "MEAN_MOTION": 1.86228523, "ECCENTRICITY": 0.00061371, "INCLINATION": 54.1729, "RA_OF_ASC_NODE": 188.5337, "ARG_OF_PERICENTER": 307.6759, "MEAN_ANOMALY": 184.25, "EPHEMERIS_TYPE": 0, "CLASSIFICATION_TYPE": "U", "NORAD_CAT_ID": 43706, "ELEMENT_SET_NO": 999, "REV_AT_EPOCH": 4811, "BSTAR": 0, "MEAN_MOTION_DOT": 1.13e-06, "MEAN_MOTION_DDOT": 0}, "tle": {"line1": "1 43706U 18093A   25349.33107084  .00000113  00000+0  00000+0 0  9993", "line2": "2 43706  54.1729 188.5337 0006137 307.6759 184.2500  1.86228523 48110"}}, "geometry": {"type": "Point", "coordinates": [-48.18057240884397, 49.126278128966526]}}, {"type": "Feature", "properties": {"norad_id": 43707, "name": "BEIDOU-3 M18 (C37)", "group": "beidou", "lat": -19.176833994719935, "lon": 22.999866258066024, "alt_km": 21546.269685311407, "timestamp": "2025-12-17T23:38:07.119379+00:00", "meta": {"OBJECT_NAME": "BEIDOU-3 M18 (C37)", "OBJECT_ID": "2018-093B", "EPOCH": "2025-12-16T14:33:42.784416", "MEAN_MOTION": 1.8622677, "ECCENTRICITY": 0.00063186, "INCLINATION": 54.1735, "RA_OF_ASC_NODE": 188.4822, "ARG_OF_PERICENTER": 353.2257, "MEAN_ANOMALY": 6.8349, "EPHEMERIS_TYPE": 0, "CLASSIFICATION_TYPE": "U", "NORAD_CAT_ID": 43707, "ELEMENT_SET_NO": 999, "REV_AT_EPOCH": 4813, "BSTAR": 0, "MEAN_MOTION_DOT": 1.15e-06, "MEAN_MOTION_DDOT": 0}, "tle": {"line1": "1 43707U 18093B   25350.60674519  .00000115  00000+0  00000+0 0  9990", "line2": "2 43707  54.1735 188.4822 0006318 353.2257   6.8349  1.86226770 48131"}}, "geometry": {"type": "Point", "coordinates": [22.999866258066024, -19.176833994719935]}}, {"type": "Feature", "properties": {"norad_id": 44204, "name": "BEIDOU-3 IGSO-1 (C38)", "group": "beidou", "lat": 21.925641555914687, "lon": -154.7413705458556, "alt_km": 35748.00680723763, "timestamp": "2025-12-17T23:38:07.119391+00:00", "meta": {"OBJECT_NAME": "BEIDOU-3 IGSO-1 (C38)", "OBJECT_ID": "2019-023A", "EPOCH": "2025-11-19T14:15:02.708640", "MEAN_MOTION": 1.00252177, "ECCENTRICITY": 0.0026966, "INCLINATION": 58.4003, "RA_OF_ASC_NODE": 39.8168, "ARG_OF_PERICENTER": 221.2202, "MEAN_ANOMALY": 126.9723, "EPHEMERIS_TYPE": 0, "CLASSIFICATION_TYPE": "U", "NORAD_CAT_ID": 44204, "ELEMENT_SET_NO": 999, "REV_AT_EPOCH": 510, "BSTAR": 0, "MEAN_MOTION_DOT": -2.26e-06, "MEAN_MOTION_DDOT": 0}, "tle": {"line1": "1 44204U 19023A   25323.59378135 -.00000226  00000+0  00000+0 0  9994", "line2": "2 44204  58.4003  39.8168 0026966 221.2202 126.9723  1.00252177  5102"}}, "geometry": {"type": "Point", "coordinates": [-154.7413705458556, 21.925641555914687]}}, {"type": "Feature", "properties": {"norad_id": 44231, "name": "BEIDOU-2 G8 (C01)", "group": "beidou", "lat": 0.7899609372314326, "lon": -134.292168367754, "alt_km": 35798.48848935484, "timestamp": "2025-12-17T23:38:07.119414+00:00", "meta": {"OBJECT_NAME": "BEIDOU-2 G8 (C01)", "OBJECT_ID": "2019-027A", "EPOCH": "2025-12-17T15:43:31.259424", "MEAN_MOTION": 1.00267, "ECCENTRICITY": 0.00087511, "INCLINATION": 1.6742, "RA_OF_ASC_NODE": 74.7239, "ARG_OF_PERICENTER": 258.8282, "MEAN_ANOMALY": 133.2809, "EPHEMERIS_TYPE": 0, "CLASSIFICATION_TYPE": "U", "NORAD_CAT_ID": 44231, "ELEMENT_SET_NO": 999, "REV_AT_EPOCH": 2426, "BSTAR": 0, "MEAN_MOTION_DOT": -2.25e-06, "MEAN_MOTION_DDOT": 0}, "tle": {"line1": "1 44231U 19027A   25351.65522291 -.00000225  00000+0  00000+0 0  9999", "line2": "2 44231   1.6742  74.7239 0008751 258.8282 133.2809  1.00267000 24260"}}, "geometry": {"type": "Point", "coordinates": [-134.292168367754, 0.7899609372314326]}}, {"type": "Feature", "properties": {"norad_id": 44337, "name": "BEIDOU-3 IGSO-2 (C39)", "group": "beidou", "lat": 32.04116026461826, "lon": -173.73945273430428, "alt_km": 35933.336890719394, "timestamp": "2025-12-17T23:38:07.119429+00:00", "meta": {"OBJECT_NAME": "BEIDOU-3 IGSO-2 (C39)", "OBJECT_ID": "2019-035A", "EPOCH": "2025-12-17T08:45:49.715136", "MEAN_MOTION": 1.00269992, "ECCENTRICITY": 0.00374828, "INCLINATION": 55.2268, "RA_OF_ASC_NODE": 160.4607, "ARG_OF_PERICENTER": 202.3509, "MEAN_ANOMALY": 334.3445, "EPHEMERIS_TYPE": 0, "CLASSIFICATION_TYPE": "U", "NORAD_CAT_ID": 44337, "ELEMENT_SET_NO": 999, "REV_AT_EPOCH": 2384, "BSTAR": 0, "MEAN_MOTION_DOT": -4.2e-07, "MEAN_MOTION_DDOT": 0}, "tle": {"line1": "1 44337U 19035A   25351.36515874 -.00000042  00000+0  00000+0 0  9999", "line2": "2 44337  55.2268 160.4607 0037482 202.3509 334.3445  1.00269992 23841"}}, "geometry": {"type": "Point", "coordinates": [-173.73945273430428, 32.04116026461826]}}]}